{
  "type": "FeatureCollection",
  "features": [
    {
      "type": "Feature",
      "properties": {
        "norad_id": 29816,
        "name": "FENGYUN 1C DEB",
        "group": "fengyun-1c-debris",
        "lat": 47.719528827454305,
        "lon": -161.0477332313589,
        "alt_km": 827.3209531245611,
        "timestamp": "2025-12-14T20:40:32.043133+00:00",
        "meta_object_name": "FENGYUN 1C DEB",
        "meta_object_id": "1999-025DJ",
        "meta_epoch": "2025-12-14T02:54:32.646816",
        "meta_mean_motion": 14.4432091,
        "meta_eccentricity": 0.02377531,
        "meta_inclination": 98.9935,
        "meta_ra_of_asc_node": 208.1992,
        "meta_arg_of_pericenter": 173.0036,
        "meta_mean_anomaly": 351.0174,
        "meta_ephemeris_type": 0,
        "meta_classification_type": "U",
        "meta_norad_cat_id": 29816,
        "meta_element_set_no": 999,
        "meta_rev_at_epoch": 98207,
        "meta_bstar": 0.0012291979,
        "meta_mean_motion_dot": 5.925e-05,
        "meta_mean_motion_ddot": 0,
        "tle_line1": "1 29816U 99025DJ  25348.12121119  .00005925  00000+0  12292-2 0  9999",
        "tle_line2": "2 29816  98.9935 208.1992 0237753 173.0036 351.0174 14.44320910982074"
      },
      "geometry": {
        "type": "Point",
        "coordinates": [
          -161.0477332313589,
          47.719528827454305
        ]
      }
    },
    {
      "type": "Feature",
      "properties": {
        "norad_id": 29817,
        "name": "FENGYUN 1C DEB",
        "group": "fengyun-1c-debris",
        "lat": 57.55581406319987,
        "lon": 171.6733192564744,
        "alt_km": 842.513842254908,
        "timestamp": "2025-12-14T20:40:32.043143+00:00",
        "meta_object_name": "FENGYUN 1C DEB",
        "meta_object_id": "1999-025DK",
        "meta_epoch": "2025-12-14T05:06:54.154656",
        "meta_mean_motion": 14.14254661,
        "meta_eccentricity": 0.00121957,
        "meta_inclination": 98.5576,
        "meta_ra_of_asc_node": 337.3508,
        "meta_arg_of_pericenter": 11.5841,
        "meta_mean_anomaly": 50.5189,
        "meta_ephemeris_type": 0,
        "meta_classification_type": "U",
        "meta_norad_cat_id": 29817,
        "meta_element_set_no": 999,
        "meta_rev_at_epoch": 97416,
        "meta_bstar": 0.00043415471,
        "meta_mean_motion_dot": 7.87e-06,
        "meta_mean_motion_ddot": 0,
        "tle_line1": "1 29817U 99025DK  25348.21312679  .00000787  00000+0  43415-3 0  9996",
        "tle_line2": "2 29817  98.5576 337.3508 0012195  11.5841  50.5189 14.14254661974165"
      },
      "geometry": {
        "type": "Point",
        "coordinates": [
          171.6733192564744,
          57.55581406319987
        ]
      }
    },
    {
      "type": "Feature",
      "properties": {
        "norad_id": 29818,
        "name": "FENGYUN 1C DEB",
        "group": "fengyun-1c-debris",
        "lat": 36.3548790472611,
        "lon": 52.57981417121554,
        "alt_km": 920.6682182899676,
        "timestamp": "2025-12-14T20:40:32.043153+00:00",
        "meta_object_name": "FENGYUN 1C DEB",
        "meta_object_id": "1999-025DL",
        "meta_epoch": "2025-12-14T06:50:43.911744",
        "meta_mean_motion": 14.04501853,
        "meta_eccentricity": 0.01151889,
        "meta_inclination": 98.721,
        "meta_ra_of_asc_node": 225.5392,
        "meta_arg_of_pericenter": 21.5362,
        "meta_mean_anomaly": 88.3862,
        "meta_ephemeris_type": 0,
        "meta_classification_type": "U",
        "meta_norad_cat_id": 29818,
        "meta_element_set_no": 999,
        "meta_rev_at_epoch": 96831,
        "meta_bstar": 0.0002026806,
        "meta_mean_motion_dot": 3.01e-06,
        "meta_mean_motion_ddot": 0,
        "tle_line1": "1 29818U 99025DL  25348.28523046  .00000301  00000+0  20268-3 0  9999",
        "tle_line2": "2 29818  98.7210 225.5392 0115188  21.5362  88.3862 14.04501853968311"
      },
      "geometry": {
        "type": "Point",
        "coordinates": [
          52.57981417121554,
          36.3548790472611
        ]
      }
    },
    {
      "type": "Feature",
      "properties": {
        "norad_id": 29819,
        "name": "FENGYUN 1C DEB",
        "group": "fengyun-1c-debris",
        "lat": -55.86557682587097,
        "lon": 139.41191593603912,
        "alt_km": 1031.916990031481,
        "timestamp": "2025-12-14T20:40:32.043178+00:00",
        "meta_object_name": "FENGYUN 1C DEB",
        "meta_object_id": "1999-025DM",
        "meta_epoch": "2025-12-13T23:19:31.505088",
        "meta_mean_motion": 14.02198439,
        "meta_eccentricity": 0.01914952,
        "meta_inclination": 98.7323,
        "meta_ra_of_asc_node": 331.6627,
        "meta_arg_of_pericenter": 63.6378,
        "meta_mean_anomaly": 4.9094,
        "meta_ephemeris_type": 0,
        "meta_classification_type": "U",
        "meta_norad_cat_id": 29819,
        "meta_element_set_no": 999,
        "meta_rev_at_epoch": 96637,
        "meta_bstar": 0.00056496551,
        "meta_mean_motion_dot": 9.75e-06,
        "meta_mean_motion_ddot": 0,
        "tle_line1": "1 29819U 99025DM  25347.97189242  .00000975  00000+0  56497-3 0  9991",
        "tle_line2": "2 29819  98.7323 331.6627 0191495  63.6378   4.9094 14.02198439966371"
      },
      "geometry": {
        "type": "Point",
        "coordinates": [
          139.41191593603912,
          -55.86557682587097
        ]
      }
    },
    {
      "type": "Feature",
      "properties": {
        "norad_id": 29820,
        "name": "FENGYUN 1C DEB",
        "group": "fengyun-1c-debris",
        "lat": -37.99384833058633,
        "lon": 168.87317216806818,
        "alt_km": 840.0955992192576,
        "timestamp": "2025-12-14T20:40:32.043192+00:00",
        "meta_object_name": "FENGYUN 1C DEB",
        "meta_object_id": "1999-025DN",
        "meta_epoch": "2025-12-14T07:44:02.912352",
        "meta_mean_motion": 14.02607952,
        "meta_eccentricity": 0.00721638,
        "meta_inclination": 98.8319,
        "meta_ra_of_asc_node": 355.3258,
        "meta_arg_of_pericenter": 233.2884,
        "meta_mean_anomaly": 144.0784,
        "meta_ephemeris_type": 0,
        "meta_classification_type": "U",
        "meta_norad_cat_id": 29820,
        "meta_element_set_no": 999,
        "meta_rev_at_epoch": 96582,
        "meta_bstar": 0.00077911609,
        "meta_mean_motion_dot": 1.186e-05,
        "meta_mean_motion_ddot": 0,
        "tle_line1": "1 29820U 99025DN  25348.32225593  .00001186  00000+0  77912-3 0  9993",
        "tle_line2": "2 29820  98.8319 355.3258 0072163 233.2884 144.0784 14.02607952965825"
      },
      "geometry": {
        "type": "Point",
        "coordinates": [
          168.87317216806818,
          -37.99384833058633
        ]
      }
    },
    {
      "type": "Feature",
      "properties": {
        "norad_id": 29821,
        "name": "FENGYUN 1C DEB",
        "group": "fengyun-1c-debris",
        "lat": -29.83829059615796,
        "lon": 48.9769486503099,
        "alt_km": 1080.565538075477,
        "timestamp": "2025-12-14T20:40:32.043203+00:00",
        "meta_object_name": "FENGYUN 1C DEB",
        "meta_object_id": "1999-025DP",
        "meta_epoch": "2025-12-14T02:22:33.616416",
        "meta_mean_motion": 14.11079533,
        "meta_eccentricity": 0.03762385,
        "meta_inclination": 98.874,
        "meta_ra_of_asc_node": 43.0803,
        "meta_arg_of_pericenter": 116.8613,
        "meta_mean_anomaly": 304.3786,
        "meta_ephemeris_type": 0,
        "meta_classification_type": "U",
        "meta_norad_cat_id": 29821,
        "meta_element_set_no": 999,
        "meta_rev_at_epoch": 96530,
        "meta_bstar": 0.0010032687,
        "meta_mean_motion_dot": 3.475e-05,
        "meta_mean_motion_ddot": 0,
        "tle_line1": "1 29821U 99025DP  25348.09900019  .00003475  00000+0  10033-2 0  9994",
        "tle_line2": "2 29821  98.8740  43.0803 0376238 116.8613 304.3786 14.11079533965301"
      },
      "geometry": {
        "type": "Point",
        "coordinates": [
          48.9769486503099,
          -29.83829059615796
        ]
      }
    },
    {
      "type": "Feature",
      "properties": {
        "norad_id": 29827,
        "name": "FENGYUN 1C DEB",
        "group": "fengyun-1c-debris",
        "lat": 36.116494869241215,
        "lon": -26.334654121912347,
        "alt_km": 814.0676646775573,
        "timestamp": "2025-12-14T20:40:32.043213+00:00",
        "meta_object_name": "FENGYUN 1C DEB",
        "meta_object_id": "1999-025DV",
        "meta_epoch": "2025-12-14T05:36:19.156320",
        "meta_mean_motion": 14.21690327,
        "meta_eccentricity": 0.00249492,
        "meta_inclination": 98.6022,
        "meta_ra_of_asc_node": 339.3945,
        "meta_arg_of_pericenter": 318.0389,
        "meta_mean_anomaly": 106.3968,
        "meta_ephemeris_type": 0,
        "meta_classification_type": "U",
        "meta_norad_cat_id": 29827,
        "meta_element_set_no": 999,
        "meta_rev_at_epoch": 97884,
        "meta_bstar": 0.00046061676,
        "meta_mean_motion_dot": 9.72e-06,
        "meta_mean_motion_ddot": 0,
        "tle_line1": "1 29827U 99025DV  25348.23355505  .00000972  00000+0  46062-3 0  9991",
        "tle_line2": "2 29827  98.6022 339.3945 0024949 318.0389 106.3968 14.21690327978847"
      },
      "geometry": {
        "type": "Point",
        "coordinates": [
          -26.334654121912347,
          36.116494869241215
        ]
      }
    }
  ]
}